TDRS 3                  
1 19548U 88091B   24037.25257819 -.00000285  00000+0  00000+0 0  9992
2 19548  13.2645 346.8481 0040753 338.4013 212.6863  1.00268607116742
HST                     
1 20580U 90037B   24038.57613292  .00007450  00000+0  36959-3 0  9996
2 20580  28.4685 138.9020 0002977  61.6120 298.4772 15.15827175657182
TDRS 5                  
1 21639U 91054B   24038.63838972  .00000106  00000+0  00000+0 0  9998
2 21639  14.1791   0.0717 0002804 301.3148 268.5166  1.00646810119084
TDRS 6                  
1 22314U 93003B   24038.32005389 -.00000287  00000+0  00000+0 0  9990
2 22314  14.1583   3.3724 0007084 160.3625  42.4027  1.00278197113770
TDRS 7                  
1 23613U 95035B   24038.38142808 -.00000194  00000+0  00000+0 0  9991
2 23613  13.7359 354.1534 0024145  59.1712 305.9083  1.00274725104620
ISS (ZARYA)             
1 25544U 98067A   24038.59623876  .00018041  00000+0  32780-3 0  9999
2 25544  51.6371 242.5104 0002261 217.3201 142.7630 15.49610024438291
LANDSAT 7               
1 25682U 99020A   24038.58710834  .00000744  00000+0  16253-3 0  9990
2 25682  97.9039  71.4590 0001537  81.3410  33.9581 14.60450972320137
TERRA                   
1 25994U 99068A   24038.58460674  .00000827  00000+0  18340-3 0  9993
2 25994  98.0661 105.8339 0002925  68.9564  67.4209 14.59575725283995
TDRS 8                  
1 26388U 00034A   24038.62764318  .00000099  00000+0  00000+0 0  9994
2 26388  11.3312  38.2604 0005206 252.5527 264.5918  1.00273020 86558
TIMED                   
1 26998U 01055B   24038.61549091  .00002688  00000+0  27747-3 0  9990
2 26998  74.0722 162.3327 0002265 261.6940  98.3985 14.90724115202364
TDRS 9                  
1 27389U 02011A   24038.42398218 -.00000159  00000+0  00000+0 0  9991
2 27389  10.3206  55.0522 0001529 137.7990  35.2129  0.98981627 81769
AQUA                    
1 27424U 02022A   24038.62229678  .00001772  00000+0  38889-3 0  9999
2 27424  98.3158 347.6698 0001608 106.2372  74.2015 14.58838013157636
TDRS 10                 
1 27566U 02055A   24038.62392097  .00000092  00000+0  00000+0 0  9992
2 27566   9.3163  46.2956 0006154 308.4267 196.0443  1.00276993 77602
SORCE                   
1 27651U 03004A   24038.58827091  .00004457  00000+0  42400-3 0  9997
2 27651  39.9939  97.8461 0019143  28.9311 331.2537 14.93865335142707
AURA                    
1 28376U 04026A   24038.60162130  .00001701  00000+0  37874-3 0  9994
2 28376  98.2377 344.4972 0001784  88.2687 271.8717 14.58183808 40649
SWIFT                   
1 28485U 04047A   24038.32517106  .00014218  00000+0  70296-3 0  9996
2 28485  20.5580  35.4076 0008598  30.7738 329.3201 15.15446287 54273
THEMIS A                
1 30580U 07004A   24038.46636223 -.00000151  00000+0 -10821+0 0  9995
2 30580  10.8026 275.8861 8317538 295.9038 342.5514  0.87833220 33703
THEMIS D                
1 30797U 07004D   24038.41091198 -.00000051  00000+0  00000+0 0  9992
2 30797   7.0535 268.9681 8298290 306.4091 312.2194  0.87834285 33507
THEMIS E                
1 30798U 07004E   24038.41509921 -.00000021  00000+0  00000+0 0  9998
2 30798   8.3659 287.9518 8297327 288.9476 330.0181  0.87831918 58343
AIM                     
1 31304U 07015A   24038.47390863  .00051139  00000+0  10509-2 0  9996
2 31304  97.8930   0.9191 0006146  89.8689 270.3263 15.45812352922815
FGRST (GLAST)           
1 33053U 08029A   24038.33484826  .00005144  00000+0  24737-3 0  9997
2 33053  25.5843  27.1482 0010254 308.2016  51.7596 15.15606625864692
WISE                    
1 36119U 09071A   24038.61799062  .00030883  00000+0  50087-3 0  9998
2 36119  97.1691  74.5581 0000616 139.6633 220.4666 15.52707595787913
TDRS 11                 
1 39070U 13004A   24038.58243931  .00000085  00000+0  00000+0 0  9990
2 39070   2.7013   6.8891 0003583  26.4849 139.0050  1.00271342 38063
TDRS 12                 
1 39504U 14004A   24038.42807226 -.00000262  00000+0  00000+0 0  9997
2 39504   3.5543   0.2215 0003217 240.7418   9.1223  1.00277682 35640
GPM-CORE                
1 39574U 14009C   24038.46210939  .00020238  00000+0  44529-3 0  9994
2 39574  64.9899 310.5785 0008569 269.9928  90.0230 15.43989883564868
MMS 1                   
1 40482U 15011A   24038.50001157 -.00002460  00000+0  00000+0 0  9993
2 40482  39.4150  24.0472 9163073 135.4129  94.8142  0.28417913  1357
MMS 2                   
1 40483U 15011B   24038.50001157 -.00002459  00000+0  00000+0 0  9992
2 40483  39.4191  24.0515 9162561 135.4050  94.8272  0.28417878  1359
MMS 3                   
1 40484U 15011C   24038.50001157 -.00002459  00000+0  00000+0 0  9993
2 40484  39.4141  24.0493 9161967 135.4104  94.8176  0.28417918  1357
MMS 4                   
1 40485U 15011D   24038.50001157 -.00002460  00000+0  00000+0 0  9996
2 40485  39.4129  24.0467 9162580 135.4066  94.8370  0.28417924  1357
TDRS 13                 
1 42915U 17047A   24038.29066337 -.00000086  00000+0  00000+0 0  9996
2 42915   3.7519 341.9634 0012901 109.4922 138.5574  1.00271561 23717
JPSS-1                  
1 43013U 17073A   24038.54060475  .00000147  00000+0  90320-4 0  9996
2 43013  98.7369 338.4825 0001234 113.9283 246.2022 14.19542448322361
